OBJECT_NAME,OBJECT_ID,EPOCH,MEAN_MOTION,ECCENTRICITY,INCLINATION,RA_OF_ASC_NODE,ARG_OF_PERICENTER,MEAN_ANOMALY,EPHEMERIS_TYPE,CLASSIFICATION_TYPE,NORAD_CAT_ID,ELEMENT_SET_NO,REV_AT_EPOCH,BSTAR,MEAN_MOTION_DOT,MEAN_MOTION_DDOT
BEIDOU-2 G3,2010-024A,2026-07-12T03:29:38.637312,1.00268798,.0007076,4.5714,61.3964,359.4822,1.1686,0,U,36590,999,5901,0,-.136E-5,0
BADR-5,2010-025A,2026-07-12T03:23:25.830816,1.00268880,.0005006,0.0452,124.6181,71.6250,175.1233,0,U,36592,999,5346,0,.156E-5,0
COMS 1,2010-032A,2026-07-12T01:24:49.084416,0.99168704,.0011255,4.8663,75.0558,14.7288,195.8952,0,U,36744,999,5133,0,-.246E-5,0
ARABSAT-5A,2010-032B,2026-07-12T03:23:25.830816,1.00272702,.0005698,0.1043,65.0675,55.5228,250.7850,0,U,36745,999,5889,0,.156E-5,0
ECHOSTAR 15,2010-034A,2026-07-12T04:23:29.910048,1.00271274,.0001859,0.0537,270.5682,178.5427,148.0220,0,U,36792,999,5857,0,.2E-7,0
BEIDOU-2 IGSO-1,2010-036A,2026-07-11T20:26:37.726656,1.00264608,.0058925,54.3064,162.7376,225.2565,315.6066,0,U,36828,999,5834,0,-.89E-6,0
NILESAT 201,2010-037A,2026-07-12T03:12:49.347072,1.00271751,.0005469,0.0246,131.5391,6.6745,193.0374,0,U,36830,999,5862,0,-.55E-6,0
RASCOM-QAF 1R,2010-037B,2026-07-12T03:15:34.085088,1.00272616,.0006462,0.0267,80.3945,21.2928,240.1249,0,U,36831,999,5855,0,.21E-6,0
AEHF-1 (USA 214),2010-039A,2026-07-11T19:49:45.528960,1.00272875,.00036971,8.2790,67.7230,37.4198,151.9554,0,U,36868,999,5390,0,.144E-5,0
XM-5,2010-053A,2026-07-12T02:41:55.560768,1.00271780,.0001819,0.0643,265.8044,321.6356,347.8565,0,U,37185,999,5773,0,-.2E-6,0
BSAT-3B,2010-056B,2026-07-12T01:50:38.563008,1.00270752,.0002603,0.0678,230.1708,314.6718,242.6301,0,U,37207,999,5234,0,-.347E-5,0
BEIDOU-2 G4,2010-057A,2026-07-12T02:17:38.918112,1.00269927,.0005597,3.7049,68.7892,185.0155,230.5371,0,U,37210,999,5754,0,-.114E-5,0
SKYTERRA 1,2010-061A,2026-07-12T02:45:55.179072,1.00276006,.0002403,5.1762,50.8089,33.1779,146.2022,0,U,37218,999,5744,0,-.121E-5,0
HYLAS 1,2010-065A,2026-07-11T23:24:38.490336,1.00639254,.0001195,5.7035,72.7120,148.9589,87.4547,0,U,37237,999,713,0,.147E-5,0
INTELSAT 17 (IS-17),2010-065B,2026-07-12T04:32:21.943104,1.00272019,.0002641,0.0204,92.0139,24.9881,307.1687,0,U,37238,999,5349,0,.1E-7,0
BEIDOU-2 IGSO-2,2010-068A,2026-07-11T16:54:31.753152,1.00274707,.00571589,47.5028,271.5270,213.6994,166.3305,0,U,37256,999,5704,0,-.193E-5,0
EUTELSAT KA-SAT 9A,2010-069A,2026-07-12T03:17:18.916800,1.00270396,.0004342,0.0615,15.4686,125.7169,207.1640,0,U,37258,999,4425,0,.64E-6,0
HISPASAT 30W-5,2010-070A,2026-07-12T02:59:30.719904,1.00271065,.0005523,0.0241,118.7816,6.9596,179.1618,0,U,37264,999,5343,0,-.213E-5,0
KOREASAT 6,2010-070B,2026-07-12T04:00:22.288896,1.00270220,.000244,0.0276,44.9773,82.2635,22.8204,0,U,37265,999,5702,0,0,0
BEIDOU-2 IGSO-3,2011-013A,2026-07-11T12:21:03.684672,1.00261228,.0035206,62.4411,39.9226,183.2728,358.1795,0,U,37384,999,5590,0,-.168E-5,0
INTELSAT 28 (IS-28),2011-016A,2026-07-12T04:25:06.221856,1.00271704,.0003673,1.8681,82.3117,38.8633,203.4608,0,U,37392,999,5353,0,-.224E-5,0
YAHSAT 1A,2011-016B,2026-07-12T03:29:40.233120,1.00270631,.0003024,0.0265,52.7973,61.4949,280.6704,0,U,37393,999,4265,0,0,0
SBIRS GEO-1 (USA 230),2011-019A,2026-07-12T01:46:54.464736,1.00272465,.0002016,4.5898,53.1059,50.0118,265.3802,0,U,37481,999,5564,0,.99E-6,0
TELSTAR 14R,2011-021A,2026-07-12T04:47:42.988704,1.00270500,.000163,0.0791,84.6575,0.2675,214.1063,0,U,37602,999,5608,0,-.278E-5,0
GSAT-8,2011-022A,2026-07-12T03:30:25.161120,1.00272109,.0002725,2.1930,81.5200,165.6003,150.6039,0,U,37605,999,5346,0,.85E-6,0
ST-2,2011-022B,2026-07-12T03:29:38.637312,1.00271232,.0001454,0.0270,52.4386,79.3607,298.6726,0,U,37606,999,5552,0,0,0
ZHONGXING-10,2011-026A,2026-07-12T03:29:38.637312,1.00268752,.000329,1.1077,83.9244,23.0627,320.9506,0,U,37677,999,5524,0,-.186E-5,0
SES-3,2011-035A,2026-07-12T02:45:25.225920,1.00271354,.0001906,1.3883,82.8118,29.2066,116.3585,0,U,37748,999,5484,0,-.1E-5,0
KAZSAT-2,2011-035B,2026-07-12T03:29:38.637312,1.00269373,.0002097,0.0246,118.2370,55.3908,255.3204,0,U,37749,999,5364,0,-.194E-5,0
BEIDOU-2 IGSO-4,2011-038A,2026-07-11T22:51:23.065920,1.00279662,.0160284,54.6042,165.4533,231.4099,330.0593,0,U,37763,999,5489,0,.1E-7,0
ASTRA 1N,2011-041A,2026-07-12T03:20:11.143104,1.00269661,.0005557,0.0759,34.7951,74.4172,250.0652,0,U,37775,999,4477,0,.122E-5,0
BSAT-3C (JCSAT-110R),2011-041B,2026-07-12T01:50:38.563008,1.00271658,.0000202,0.0273,319.9116,274.1563,193.5216,0,U,37776,999,5071,0,-.347E-5,0
