BEIDOU-2 G3             
1 36590U 10024A   26193.14558608 -.00000136  00000+0  00000+0 0  9997
2 36590   4.5714  61.3964 0007076 359.4822   1.1686  1.00268798 59016
BADR-5                  
1 36592U 10025A   26193.14127119  .00000156  00000+0  00000+0 0  9990
2 36592   0.0452 124.6181 0005006  71.6250 175.1233  1.00268880 53466
COMS 1                  
1 36744U 10032A   26193.05890144 -.00000246  00000+0  00000+0 0  9993
2 36744   4.8663  75.0558 0011255  14.7288 195.8952  0.99168704 51332
ARABSAT-5A              
1 36745U 10032B   26193.14127119  .00000156  00000+0  00000+0 0  9998
2 36745   0.1043  65.0675 0005698  55.5228 250.7850  1.00272702 58897
ECHOSTAR 15             
1 36792U 10034A   26193.18298507  .00000002  00000+0  00000+0 0  9996
2 36792   0.0537 270.5682 0001859 178.5427 148.0220  1.00271274 58577
BEIDOU-2 IGSO-1         
1 36828U 10036A   26192.85182554 -.00000089  00000+0  00000+0 0  9991
2 36828  54.3064 162.7376 0058925 225.2565 315.6066  1.00264608 58343
NILESAT 201             
1 36830U 10037A   26193.13390448 -.00000055  00000+0  00000+0 0  9993
2 36830   0.0246 131.5391 0005469   6.6745 193.0374  1.00271751 58621
RASCOM-QAF 1R           
1 36831U 10037B   26193.13581117  .00000021  00000+0  00000+0 0  9991
2 36831   0.0267  80.3945 0006462  21.2928 240.1249  1.00272616 58559
AEHF-1 (USA 214)        
1 36868U 10039A   26192.82622140  .00000144  00000+0  00000+0 0  9996
2 36868   8.2790  67.7230 0003697  37.4198 151.9554  1.00272875 53900
XM-5                    
1 37185U 10053A   26193.11244862 -.00000020  00000+0  00000+0 0  9993
2 37185   0.0643 265.8044 0001819 321.6356 347.8565  1.00271780 57739
BSAT-3B                 
1 37207U 10056B   26193.07683522 -.00000347  00000+0  00000+0 0  9998
2 37207   0.0678 230.1708 0002603 314.6718 242.6301  1.00270752 52340
BEIDOU-2 G4             
1 37210U 10057A   26193.09558933 -.00000114  00000+0  00000+0 0  9994
2 37210   3.7049  68.7892 0005597 185.0155 230.5371  1.00269927 57547
SKYTERRA 1              
1 37218U 10061A   26193.11522198 -.00000121  00000+0  00000+0 0  9992
2 37218   5.1762  50.8089 0002403  33.1779 146.2022  1.00276006 57442
HYLAS 1                 
1 37237U 10065A   26192.97544549  .00000147  00000+0  00000+0 0  9991
2 37237   5.7035  72.7120 0001195 148.9589  87.4547  1.00639254  7139
INTELSAT 17 (IS-17)     
1 37238U 10065B   26193.18914286  .00000001  00000+0  00000+0 0  9994
2 37238   0.0204  92.0139 0002641  24.9881 307.1687  1.00272019 53495
BEIDOU-2 IGSO-2         
1 37256U 10068A   26192.70453418 -.00000193  00000+0  00000+0 0  9992
2 37256  47.5028 271.5270 0057158 213.6994 166.3305  1.00274707 57043
EUTELSAT KA-SAT 9A      
1 37258U 10069A   26193.13702450  .00000064  00000+0  00000+0 0  9992
2 37258   0.0615  15.4686 0004342 125.7169 207.1640  1.00270396 44256
HISPASAT 30W-5          
1 37264U 10070A   26193.12466111 -.00000213  00000+0  00000+0 0  9998
2 37264   0.0241 118.7816 0005523   6.9596 179.1618  1.00271065 53433
KOREASAT 6              
1 37265U 10070B   26193.16692464  .00000000  00000+0  00000+0 0  9998
2 37265   0.0276  44.9773 0002440  82.2635  22.8204  1.00270220 57026
BEIDOU-2 IGSO-3         
1 37384U 11013A   26192.51462598 -.00000168  00000+0  00000+0 0  9995
2 37384  62.4411  39.9226 0035206 183.2728 358.1795  1.00261228 55902
INTELSAT 28 (IS-28)     
1 37392U 11016A   26193.18409979 -.00000224  00000+0  00000+0 0  9998
2 37392   1.8681  82.3117 0003673  38.8633 203.4608  1.00271704 53533
YAHSAT 1A               
1 37393U 11016B   26193.14560455  .00000000  00000+0  00000+0 0  9993
2 37393   0.0265  52.7973 0003024  61.4949 280.6704  1.00270631 42659
SBIRS GEO-1 (USA 230)   
1 37481U 11019A   26193.07424149  .00000099  00000+0  00000+0 0  9993
2 37481   4.5898  53.1059 0002016  50.0118 265.3802  1.00272465 55649
TELSTAR 14R             
1 37602U 11021A   26193.19980311 -.00000278  00000+0  00000+0 0  9992
2 37602   0.0791  84.6575 0001630   0.2675 214.1063  1.00270500 56083
GSAT-8                  
1 37605U 11022A   26193.14612455  .00000085  00000+0  00000+0 0  9997
2 37605   2.1930  81.5200 0002725 165.6003 150.6039  1.00272109 53465
ST-2                    
1 37606U 11022B   26193.14558608  .00000000  00000+0  00000+0 0  9994
2 37606   0.0270  52.4386 0001454  79.3607 298.6726  1.00271232 55522
ZHONGXING-10            
1 37677U 11026A   26193.14558608 -.00000186  00000+0  00000+0 0  9992
2 37677   1.1077  83.9244 0003290  23.0627 320.9506  1.00268752 55244
SES-3                   
1 37748U 11035A   26193.11487530 -.00000100  00000+0  00000+0 0  9999
2 37748   1.3883  82.8118 0001906  29.2066 116.3585  1.00271354 54846
KAZSAT-2                
1 37749U 11035B   26193.14558608 -.00000194  00000+0  00000+0 0  9991
2 37749   0.0246 118.2370 0002097  55.3908 255.3204  1.00269373 53644
BEIDOU-2 IGSO-4         
1 37763U 11038A   26192.95235030  .00000001  00000+0  00000+0 0  9995
2 37763  54.6042 165.4533 0160284 231.4099 330.0593  1.00279662 54897
ASTRA 1N                
1 37775U 11041A   26193.13901786  .00000122  00000+0  00000+0 0  9995
2 37775   0.0759  34.7951 0005557  74.4172 250.0652  1.00269661 44771
BSAT-3C (JCSAT-110R)    
1 37776U 11041B   26193.07683522 -.00000347  00000+0  00000+0 0  9994
2 37776   0.0273 319.9116 0000202 274.1563 193.5216  1.00271658 50716
